38,"1,006","FACSAT-2                
1 56205U 23054AD  23331.11846268  .00018178  00000+0  66259-3 0  9995
2 56205  97.3882 224.4802 0014266 146.2165 213.9986 15.28135300 35030",Mon Nov 27 2023 10:57:42 GMT-0500 (hora estándar de Colombia),1701100662,10:57:50 AM,480.52,-60.5
0,"1,005","FACSAT-2                
1 56205U 23054AD  23331.11846268  .00018178  00000+0  66259-3 0  9995
2 56205  97.3882 224.4802 0014266 146.2165 213.9986 15.28135300 35030",Mon Nov 27 2023 11:48:34 GMT-0500 (hora estándar de Colombia),1701103714,11:48:44 AM,505.93,-17.3
2,"1,013","FACSAT-2                
1 56205U 23054AD  23331.11846268  .00018178  00000+0  66259-3 0  9995
2 56205  97.3882 224.4802 0014266 146.2165 213.9986 15.28135300 35030",Mon Nov 27 2023 13:59:54 GMT-0500 (hora estándar de Colombia),1701111594,2:00:02 PM,486.90,-47.6
27,"1,012","FACSAT-2                
1 56205U 23054AD  23331.11846268  .00018178  00000+0  66259-3 0  9995
2 56205  97.3882 224.4802 0014266 146.2165 213.9986 15.28135300 35030",Mon Nov 27 2023 16:02:53 GMT-0500 (hora estándar de Colombia),1701118973,4:03:01 PM,490.80,-45.1
27,"1,012","FACSAT-2                
1 56205U 23054AD  23331.11846268  .00018178  00000+0  66259-3 0  9995
2 56205  97.3882 224.4802 0014266 146.2165 213.9986 15.28135300 35030",Mon Nov 27 2023 16:05:24 GMT-0500 (hora estándar de Colombia),1701119124,4:05:33 PM,496.20,-44.3
27,"1,012","FACSAT-2                
1 56205U 23054AD  23331.11846268  .00018178  00000+0  66259-3 0  9995
2 56205  97.3882 224.4802 0014266 146.2165 213.9986 15.28135300 35030",Mon Nov 27 2023 16:15:44 GMT-0500 (hora estándar de Colombia),1701119744,4:15:55 PM,513.89,-41.7
18,"1,015","FACSAT-2                
1 56205U 23054AD  23331.11846268  .00018178  00000+0  66259-3 0  9995
2 56205  97.3882 224.4802 0014266 146.2165 213.9986 15.28135300 35030",Mon Nov 27 2023 16:43:14 GMT-0500 (hora estándar de Colombia),1701121394,4:43:23 PM,490.85,-44.7
